OBJECT_NAME,OBJECT_ID,EPOCH,MEAN_MOTION,ECCENTRICITY,INCLINATION,RA_OF_ASC_NODE,ARG_OF_PERICENTER,MEAN_ANOMALY,EPHEMERIS_TYPE,CLASSIFICATION_TYPE,NORAD_CAT_ID,ELEMENT_SET_NO,REV_AT_EPOCH,BSTAR,MEAN_MOTION_DOT,MEAN_MOTION_DDOT
JILIN-1 GAOFEN 3A,2019-032C,2026-06-06T01:39:34.844256,15.32381454,.0006105,44.9747,58.1148,243.4409,116.5850,0,U,44312,999,38613,.48882E-3,.15312E-3,0
WT 1B,2019-032G,2026-06-06T03:27:46.596384,15.26961182,.0008962,44.9730,121.2052,191.9376,168.1295,0,U,44316,999,38539,.39708E-3,.10438E-3,0
PROX-1,2019-036A,2026-06-05T09:47:54.335328,14.90320876,.00053665,23.9935,192.9205,253.7841,106.2068,0,U,44339,999,37171,.10974295E-2,.11221E-3,0
NPSAT1,2019-036B,2026-06-05T16:19:56.585856,14.74475870,.00080052,23.9996,292.6960,78.9597,281.1799,0,U,44340,999,37079,.85167651E-3,.6035E-4,0
FORMOSAT 7-3,2019-036E,2026-06-05T22:45:46.677024,15.09723518,.0001078,23.9992,255.8920,119.0611,241.0000,0,U,44343,999,38154,.31132E-3,.5501E-4,0
FORMOSAT 7-1,2019-036L,2026-06-01T05:51:20.968416,14.96431318,.00007678,23.9966,139.8706,22.0039,338.0495,0,U,44349,999,38226,.22746787E-3,.2945E-4,0
FORMOSAT 7-4,2019-036M,2026-06-04T20:48:42.496128,14.96447121,.00014233,23.9966,177.5555,61.1181,298.9462,0,U,44350,999,38222,.21759927E-3,.2832E-4,0
FORMOSAT 7-2,2019-036N,2026-06-02T11:44:12.270624,14.96438939,.0000776,23.9983,247.9036,45.2979,314.7584,0,U,44351,999,38138,.23194E-3,.2998E-4,0
FORMOSAT 7-6,2019-036Q,2026-06-01T03:43:34.451040,14.96433653,.00007625,23.9983,77.7033,267.9175,92.1238,0,U,44353,999,37941,.23202823E-3,.2998E-4,0
FORMOSAT 7-5,2019-036V,2026-06-05T04:48:05.785344,14.96462948,.0000526,24.0004,349.1900,52.5110,307.5438,0,U,44358,999,38055,.22959E-3,.2972E-4,0
METEOR-M2 2,2019-038A,2026-06-06T05:11:03.653664,14.24363794,.0002346,98.9145,144.3400,64.2626,295.8794,0,U,44387,999,35973,.13683E-3,.27E-5,0
COSMOS 2535,2019-039A,2026-06-06T05:02:37.151808,14.91920188,.0006775,97.5765,185.7939,244.4797,115.5722,0,U,44421,999,37500,.13049E-3,.1267E-4,0
GLOBAL-4,2019-054E,2026-06-05T16:59:28.389408,15.63265092,.00062952,45.0066,302.5843,270.8498,89.1677,0,U,44499,999,37856,.57990844E-3,.54542E-3,0
ZY-1 02D,2019-059A,2026-06-06T04:41:25.105344,14.35456937,.0002095,98.3187,219.0690,122.4877,237.6512,0,U,44528,999,35276,.99412E-4,.244E-5,0
TAURUS-1 (JINNIUZUO 1),2019-059C,2026-06-06T03:54:55.887840,14.71977218,.0008007,98.6416,321.3087,354.9198,5.1925,0,U,44530,999,35702,.1115E-2,.6948E-4,0
ZHUHAI-1 03B,2019-060C,2026-06-06T04:05:54.286944,15.53465483,.000803,97.5523,314.3475,3.4625,356.6682,0,U,44536,999,37461,.63993E-3,.40673E-3,0
ZHUHAI-1 03D,2019-060E,2026-06-06T04:19:40.903392,15.49119323,.0006996,97.5386,306.5756,346.7433,13.3633,0,U,44538,999,37437,.74646E-3,.40651E-3,0
ZHUHAI-1 03E,2019-060F,2026-06-06T04:53:30.029856,15.40705234,.0006737,97.5606,306.7743,68.8477,291.3489,0,U,44539,999,37407,.56537E-3,.23056E-3,0
ATLAS 5 CENTAUR DEB,2018-079BG,2026-06-05T10:20:36.917376,1.77429942,.4724007,13.6111,40.2398,297.3478,22.6246,0,U,44694,999,4635,0,-.75E-6,0
GAOFEN-7,2019-072A,2026-06-06T05:11:11.626656,15.21517669,.0018113,97.2428,219.0943,76.3541,283.9711,0,U,44703,999,36597,.22242E-3,.4962E-4,0
JILIN-1 GAOFEN 2A,2019-075A,2026-06-05T22:52:16.213152,15.39009169,.0007607,97.4961,240.4832,120.0893,240.1107,0,U,44777,999,36315,.47024E-3,.18116E-3,0
NINGXIA-1 1,2019-076A,2026-06-06T04:59:20.169312,14.02037337,.001015,45.0048,228.9173,108.7294,251.4642,0,U,44779,999,33631,.22943E-4,-.95E-6,0
NINGXIA-1 5,2019-076E,2026-06-06T03:36:24.441696,14.02085888,.0009829,45.0047,228.5198,96.8481,263.3471,0,U,44783,999,33622,.61478E-4,-.35E-6,0
KL-ALPHA A,2019-077A,2026-06-06T03:01:08.819328,13.56042584,.0012623,88.9255,223.7735,133.5468,226.6737,0,U,44785,999,32423,.16988E-3,.131E-5,0
CARTOSAT-3,2019-081A,2026-06-06T03:47:29.803776,15.19205200,.0012203,97.4306,219.2022,185.2579,174.8530,0,U,44804,999,36179,.27384E-3,.5707E-4,0
JILIN-1 GAOFEN 2B,2019-086A,2026-06-05T23:03:21.111264,15.20586254,.0013905,97.4880,229.0229,5.5626,354.5761,0,U,44836,999,35878,.35948E-3,.7828E-4,0
TIANQIN 1 (CAS-6),2019-093A,2026-06-06T04:22:46.824960,14.95383400,.0012928,97.7801,241.1027,90.7623,269.5079,0,U,44879,999,35040,.37304E-3,.4068E-4,0
ETRSS-1,2019-093B,2026-06-06T04:37:07.516704,14.95811154,.0013167,97.7825,241.5618,90.6380,269.6349,0,U,44880,999,35041,.44897E-3,.4963E-4,0
TIANYAN 01,2019-093C,2026-06-06T03:21:39.494880,14.86499173,.0014749,97.7530,229.6409,119.7827,240.4858,0,U,44881,999,34977,.76672E-4,.626E-5,0
TIANYAN 02,2019-093D,2026-06-06T03:36:33.854112,15.05087116,.0014529,97.7919,251.8357,63.8478,296.4240,0,U,44882,999,35095,.70106E-3,.9938E-4,0
CBERS 4A,2019-093E,2026-06-06T03:34:22.177920,14.81620312,.0001206,97.7497,224.7379,157.4378,202.6888,0,U,44883,999,34944,.18226E-3,.1382E-4,0
WEILAI 1R,2019-093F,2026-06-06T04:27:07.829856,15.00547679,.0017834,97.7845,247.0563,69.0719,291.2411,0,U,44884,999,35077,.41724E-3,.522E-4,0
FLORIPASAT-1,2019-093G,2026-06-06T02:43:24.619296,15.03762761,.0013725,97.7924,251.2650,105.2067,255.0677,0,U,44885,999,35098,.505E-3,.6887E-4,0
SHUNTIAN,2019-093H,2026-06-06T03:58:12.739008,14.95100633,.0012964,97.8000,245.3825,100.7118,259.5562,0,U,44886,999,35053,.28256E-3,.3044E-4,0
2019-093L,2019-093L,2026-06-06T03:21:34.746336,14.94471280,.0013169,97.7550,235.5314,88.2175,272.0554,0,U,44889,999,35015,.22175E-3,.2338E-4,0
ELEKTRO-L 3,2019-095A,2026-06-06T03:34:01.785792,1.00272836,.0001515,0.2285,81.1456,348.6449,314.2341,0,U,44903,999,2359,0,-.83E-6,0
GONETS-M 14,2019-096A,2026-06-06T04:20:31.229664,12.42869199,.0013026,82.5235,91.4639,171.8919,188.2374,0,U,44905,999,29231,-.13446E-3,-.9E-7,0
GONETS-M 15,2019-096B,2026-06-06T05:02:52.368576,12.42870841,.0014446,82.5254,91.9053,196.0741,163.9882,0,U,44906,999,29228,.18431E-4,.12E-6,0
GONETS-M 16,2019-096C,2026-06-06T03:44:58.716960,12.42891332,.0009622,82.5200,90.8965,241.3553,118.6560,0,U,44907,999,29226,.27992E-3,.49E-6,0
RS-44 & BREEZE-KM R/B,2019-096E,2026-06-05T12:17:59.548992,12.79748592,.02176517,82.5219,347.4646,171.4058,189.0869,0,U,44909,999,30085,-.4546148E-5,.11E-6,0
JILIN-1 KUANFU 01,2020-003A,2026-06-05T23:01:05.679264,15.10661750,.0009218,97.5026,231.1339,350.3727,9.7325,0,U,45016,999,35363,.24722E-3,.403E-4,0
XINGYUN-2 01,2020-028A,2026-06-06T05:18:01.152288,15.11760907,.0007348,97.4870,149.8398,235.6972,124.3563,0,U,45602,999,33318,.13838E-3,.2297E-4,0
XINGYUN-2 02,2020-028B,2026-06-06T04:44:26.942784,15.11494051,.000964,97.5076,163.3829,318.0710,41.9782,0,U,45603,999,33317,.14829E-3,.2448E-4,0
HAIYANG-1D,2020-036A,2026-06-06T03:49:19.164576,14.34170104,.0002698,98.4559,99.0795,153.8220,206.3102,0,U,45721,999,31339,.10829E-3,.26E-5,0
M2 PATHFINDER,2020-037E,2026-06-05T11:24:42.861312,15.04621937,.00114252,97.8154,347.5750,186.8171,173.2901,0,U,45727,999,32373,.2377521E-3,.328E-4,0
GAOFEN DUOMO (GFDM),2020-042A,2026-06-06T03:55:58.596096,14.76864911,.0012366,97.7746,217.4504,105.7781,254.4794,0,U,45856,999,31938,.11558E-3,.764E-5,0
ZIYUAN 3-03 (ZY 3-03),2020-051A,2026-06-06T04:49:14.596896,15.21442988,.0004353,97.2831,225.2809,4.3586,355.7687,0,U,45939,999,32567,.24628E-3,.5466E-4,0
NEMO-HD,2020-061F,2026-06-06T04:19:48.003744,15.44369209,.0002647,97.1919,219.2460,93.1707,266.9844,0,U,46277,999,32028,.30768E-3,.14122E-3,0
3CAT-5A,2020-061W,2026-06-05T01:43:29.932608,15.45707543,.00028331,97.2405,218.9812,137.1731,222.9739,0,U,46292,999,31915,.33878847E-3,.16288E-3,0
3CAT-5B,2020-061X,2026-06-04T16:16:12.454752,15.47038598,.0003014,97.2401,219.5465,137.7188,222.4295,0,U,46293,999,31912,.37701E-3,.18991E-3,0
NAPA-1,2020-061BA,2026-06-06T04:20:26.845728,15.66535003,.0001227,97.2467,231.0103,155.9923,204.1395,0,U,46320,999,32001,.8184E-3,.85911E-3,0
JILIN-1 GAOFEN 3E,2020-065D,2026-06-05T22:53:34.970208,15.62286689,.0012161,97.2255,209.3134,193.0892,167.0053,0,U,46457,999,31800,.89411E-3,.79626E-3,0
JILIN-1 GAOFEN 3F,2020-065E,2026-06-05T21:29:55.546656,15.59746551,.0013729,97.2209,206.6418,182.8745,177.2436,0,U,46458,999,31794,.8628E-3,.69687E-3,0
JILIN-1 GAOFEN 3G,2020-065F,2026-06-05T22:21:40.932000,15.69196423,.0010651,97.2278,213.3020,100.3844,259.8619,0,U,46459,999,31817,.10325E-2,.121628E-2,0
JILIN-1 GAOFEN 3H,2020-065G,2026-06-05T22:39:11.822112,15.66151394,.0005444,97.2225,209.7071,46.1275,314.0434,0,U,46460,999,31812,.9637E-3,.99874E-3,0
HAIYANG-2C,2020-066A,2026-06-06T04:14:51.429696,13.83374871,.0009321,65.9974,242.6967,238.5553,121.4604,0,U,46469,999,28797,.15413E-3,.88E-6,0
HJ-2A,2020-067A,2026-06-06T04:29:07.963872,14.76599346,.0002439,97.8825,235.8188,325.4936,34.6116,0,U,46478,999,30663,.15728E-3,.1048E-4,0
HJ-2B,2020-067B,2026-06-06T03:44:50.787168,14.76543528,.000115,97.8889,236.8015,88.9766,271.1575,0,U,46479,999,30663,.90671E-4,.582E-5,0
GONETS-M 17,2020-068A,2026-06-06T04:20:57.216192,12.42872706,.0023416,82.4989,354.3509,60.3905,299.9504,0,U,46486,999,25779,.39115E-4,.15E-6,0
GONETS-M 18,2020-068B,2026-06-06T05:24:32.253120,12.42872795,.0020675,82.4942,353.4455,56.9643,303.3419,0,U,46487,999,25778,.29606E-3,.51E-6,0
GONETS-M 19,2020-068C,2026-06-06T02:53:26.996640,12.42891994,.001449,82.4967,353.9590,71.7323,288.5332,0,U,46488,999,25787,.30159E-3,.52E-6,0
DEKART,2020-068H,2026-06-06T04:56:32.918784,15.37094957,.000772,97.8745,165.6918,334.4034,25.6826,0,U,46493,999,31408,.45613E-3,.16502E-3,0
NORBI,2020-068J,2026-06-06T02:31:09.463296,15.47980801,.0004665,97.8633,172.0970,302.9153,57.1646,0,U,46494,999,31449,.59276E-3,.30947E-3,0
SALSAT,2020-068K,2026-06-05T12:02:50.089632,15.29623212,.000921,97.8853,158.8572,354.5258,5.5879,0,U,46495,999,31357,.29741857E-3,.8465E-4,0
ICEYE-X6,2020-068M,2026-06-06T05:13:01.503264,15.04458853,.0008584,98.0966,150.3660,120.8112,239.3959,0,U,46497,999,31158,.2278E-3,.3121E-4,0
NETSAT-4,2020-068U,2026-06-05T00:04:14.690784,15.43442394,.0005519,97.8608,163.2689,25.5578,334.5940,0,U,46504,999,31389,.44236761E-3,.19726E-3,0
